STARLINK-3534           
1 52120U 22029AJ  23242.07145130 -.00001028  00000+0 -46510-4 0  9991
2 52120  53.2167 260.9140 0001426  93.7207 266.3948 15.08834631 81511
STARLINK-3678           
1 52121U 22029AK  23242.04293136  .00000782  00000+0  67179-4 0  9997
2 52121  53.2145 251.0442 0001025  82.1224 277.9884 15.08850003 81631
STARLINK-3726           
1 52122U 22029AL  23241.33545985  .00001096  00000+0  86941-4 0  9998
2 52122  53.2161 264.2199 0001768  90.4802 269.6393 15.08842940 81390
STARLINK-3725           
1 52123U 22029AM  23241.43299665  .00000758  00000+0  65741-4 0  9990
2 52123  53.2157 253.7157 0001423  88.8573 271.2582 15.08840004 81553
STARLINK-3684           
1 52124U 22029AN  23242.05672929  .00000299  00000+0  36880-4 0  9990
2 52124  53.2156 260.9825 0001446  91.2495 268.8662 15.08836030 81501
STARLINK-3727           
1 52125U 22029AP  23241.30324624  .00001164  00000+0  91227-4 0  9992
2 52125  53.2155 254.3623 0001335  91.6745 268.4400 15.08836078 81534
STARLINK-3732           
1 52126U 22029AQ  23241.31060761 -.00000026  00000+0  16430-4 0  9993
2 52126  53.2163 254.3324 0001376  87.8740 272.2410 15.08838166 81522
STARLINK-3715           
1 52127U 22029AR  23242.02820827  .00000186  00000+0  29770-4 0  9997
2 52127  53.2157 251.1108 0001450  89.3376 270.7782 15.08837072 81638
STARLINK-3661           
1 52129U 22029AT  23242.02085156  .00000102  00000+0  24522-4 0  9995
2 52129  53.2164 251.1427 0001362  86.2720 273.8428 15.08836110 81647
STARLINK-3711           
1 52131U 22029AV  23241.42100660 -.00000068  00000+0  13825-4 0  9995
2 52131  53.2163 253.8344 0001330  89.5189 270.5955 15.08838019 81555
STARLINK-3718           
1 52132U 22029AW  23241.56084734  .00000529  00000+0  51334-4 0  9992
2 52132  53.2159 253.2094 0000965  72.2874 287.8223 15.08840051 81570
STARLINK-3707           
1 52133U 22029AX  23242.07605174  .00000496  00000+0  49288-4 0  9995
2 52133  53.2170 250.8951 0001395  91.5538 268.5614 15.08835460 81655
STARLINK-3721           
1 52134U 22029AY  23241.41732767  .00000271  00000+0  35119-4 0  9991
2 52134  53.2168 253.8514 0001225  92.6265 267.4868 15.08840081 81555
STARLINK-3729           
1 52135U 22029AZ  23241.40356172  .00000517  00000+0  50552-4 0  9994
2 52135  53.2162 253.9250 0001353  90.6077 269.5071 15.08841871 81556
STARLINK-3720           
1 52136U 22029BA  23241.34372922  .00000376  00000+0  41739-4 0  9999
2 52136  53.2171 254.1827 0001369  92.6458 267.4691 15.08837079 81541
STARLINK-3733           
1 52137U 22029BB  23241.33268489  .00000339  00000+0  39389-4 0  9998
2 52137  53.2166 254.2298 0001333  91.7701 268.3444 15.08839910 81543
STARLINK-3723           
1 52138U 22029BC  23242.06869079  .00000615  00000+0  56722-4 0  9999
2 52138  53.2170 250.9279 0001400  91.7677 268.3476 15.08835581 81655
STARLINK-3730           
1 52139U 22029BD  23242.04936883  .00002692  00000+0  18712-3 0  9999
2 52139  53.2147 261.0157 0001597  86.8890 273.2285 15.08852445 81502
STARLINK-3682           
1 52140U 22029BE  23242.05765260 -.00000225  00000+0  39599-5 0  9990
2 52140  53.2174 250.9760 0001492  95.4733 264.6430 15.08830247 81655
MERIDIAN 10             
1 52145U 22030A   23241.07927323  .00000104  00000+0  00000+0 0  9992
2 52145  62.6624 252.2605 6993035 273.1594  15.8799  2.00627158 10509
TK-2                    
1 52150U 22031A   23242.15323885  .00002369  00000+0  22901-3 0  9995
2 52150  97.8288  56.1589 0013932 357.0338   3.0797 14.93711730 77341
PUJIANG 2 (PJ-2)        
1 52151U 22031B   23242.14664674  .00000739  00000+0  79393-4 0  9996
2 52151  97.8208  54.6228 0012427 359.0197   1.0995 14.91504919 77299
2022-032A               
1 52153U 22032A   23242.12981308  .00001549  00000+0  15963-3 0  9995
2 52153  97.7307 288.6957 0011305 357.4764   2.6395 14.91639768 77173
2022-032C               
1 52155U 22032C   23242.14742734  .00002445  00000+0  23527-3 0  9998
2 52155  97.7363 290.6094 0016021  15.7253 344.4461 14.93824246 77270
2022-032D               
1 52156U 22032D   23242.11200719  .00002534  00000+0  23611-3 0  9991
2 52156  97.7271 290.1981 0015395  14.3124 345.8529 14.95061734 77305
OMNI-L1                 
1 52157U 22033A   23242.18552242  .00002757  00000+0  35720-3 0  9992
2 52157  97.9175 323.7702 0013414  29.8615 330.3360 14.81586316 76226
GNOMES-3                
1 52158U 22033B   23241.79798456  .00002046  00000+0  29761-3 0  9997
2 52158  97.9176 320.5054 0013453  55.2120 305.0354 14.76919082 75988
ENMAP                   
1 52159U 22033C   23241.82918573  .00000629  00000+0  10120-3 0  9990
2 52159  97.9782 322.7707 0005591  73.1350 287.0471 14.74915321 75955
ALFACRUX                
1 52160U 22033D   23241.78524062  .00032642  00000+0  80199-3 0  9996
2 52160  97.3525 323.8535 0005699 270.1640  89.8954 15.40579495 78642
ARCSAT-1                
1 52161U 22033E   23241.70915309  .00011054  00000+0  41264-3 0  9991
2 52161  97.3534 320.1528 0006890 284.8390  75.2086 15.27537862 78397
LYNK TOWER 1            
1 52162U 22033F   23241.72601200  .00006446  00000+0  24317-3 0  9995
2 52162  97.3534 320.5306 0007724 265.6554  94.3802 15.27359891 78428
ION SCV-005             
1 52163U 22033G   23242.12399129  .00314814  43023-4  62416-3 0  9995
2 52163  97.3480 340.4843 0030405 246.5831 113.2249 15.99038349 79736
SPACEBEE-136            
1 52164U 22033H   23242.01033720  .00233569  00000+0  17535-2 0  9997
2 52164  97.3344 329.0047 0007794 239.7142 120.3350 15.71866462 79040
HAWK-4B                 
1 52165U 22033J   23241.76545291  .00009730  00000+0  34278-3 0  9995
2 52165  97.3541 321.4114 0007584 270.7733  89.2638 15.29473785 78483
SPACEBEE-138            
1 52166U 22033K   23241.76118066  .00231548  00000+0  18270-2 0  9999
2 52166  97.3383 328.7463 0007830 237.7015 122.3489 15.70678473 78991
HAWK-4A                 
1 52167U 22033L   23241.76517553  .00009951  00000+0  35054-3 0  9995
2 52167  97.3491 321.1070 0007022 270.2893  89.7543 15.29472114 78481
NUSAT-23 (ANNIE MAUNDER)
1 52168U 22033M   23242.20789608  .00014395  00000+0  45862-3 0  9994
2 52168  97.3500 322.3140 0006488 261.3442  98.7065 15.32634323 78597
MP42                    
1 52169U 22033N   23242.21465883  .00015873  00000+0  49106-3 0  9999
2 52169  97.3529 322.9023 0008214 257.3294 102.7031 15.33538333 78622
HAWK-4C                 
1 52170U 22033P   23241.76502719  .00009955  00000+0  35057-3 0  9994
2 52170  97.3538 321.3966 0008971 255.9968 104.0275 15.29471107 78484
NUSAT-25 (MARIA TELKES) 
1 52171U 22033Q   23242.04735132  .00014241  00000+0  48222-3 0  9996
2 52171  97.3111 320.7040 0007427 243.9549 116.0928 15.30665534 78653
NUSAT-27 (SALLY RIDE)   
1 52172U 22033R   23242.04336324  .00020902  00000+0  55775-3 0  9999
2 52172  97.3043 322.4241 0007873 231.2453 128.8089 15.38122041 78781
SHAKUNTALA              
1 52173U 22033S   23242.19186245  .00052444  00000+0  94911-3 0  9992
2 52173  97.3563 327.2947 0008313 235.1892 124.8577 15.49465866 78892
BRO-7                   
1 52174U 22033T   23242.18735422  .00010946  00000+0  37644-3 0  9990
2 52174  97.3534 322.3136 0010134 248.9165 111.0992 15.30206161 78582
BDSAT                   
1 52175U 22033U   23241.81337036  .00031564  00000+0  69542-3 0  9990
2 52175  97.3570 325.4704 0007718 232.5877 127.4669 15.43848579 78751
SPACEBEE-130            
1 52176U 22033V   23242.08258112  .00257455  00000+0  18293-2 0  9993
2 52176  97.3370 329.2893 0007102 240.6730 119.3825 15.73111309 79040
SPACEBEE-139            
1 52177U 22033W   23241.77356458  .00191445  00000+0  17457-2 0  9998
2 52177  97.3398 328.1563 0007652 239.3240 120.7267 15.67258106 78937
NUSAT-24 (KALPANA CHAW*)
1 52178U 22033X   23242.15259858  .00012316  00000+0  45689-3 0  9996
2 52178  97.3144 320.6081 0007270 261.7973  98.2442 15.27714911 78635
SPACEBEE-129            
1 52179U 22033Y   23241.75966395  .00146604  00000+0  15427-2 0  9997
2 52179  97.3399 327.6162 0006220 238.9401 121.1248 15.63799330 78921
SPACEBEE-134            
1 52180U 22033Z   23242.15647989  .00144330  00000+0  15811-2 0  9990
2 52180  97.3366 327.6265 0006747 239.0236 121.0359 15.62769995 78940
SPACEBEE-131            
1 52181U 22033AA  23241.79161730  .00139356  00000+0  15443-2 0  9998
2 52181  97.3410 327.5994 0006218 238.9666 121.0982 15.62492772 78923
SPACEBEE-128            
1 52182U 22033AB  23241.81252620  .00166785  00000+0  16369-2 0  9995
2 52182  97.3424 328.0097 0006578 238.3885 121.6733 15.65502487 78945
SPACEBEE-133            
1 52183U 22033AC  23241.81766342  .00146733  00000+0  15842-2 0  9993
2 52183  97.3393 327.7150 0006849 241.9655 118.0912 15.63136149 78915
NUSAT-26 (M SOMERVILLE) 
1 52184U 22033AD  23241.85536323  .00013124  00000+0  45702-3 0  9998
2 52184  97.3662 321.5418 0006041 251.6315 108.4268 15.29784886 78487
SPACEBEE-132            
1 52185U 22033AE  23241.79587682  .00220964  00000+0  17486-2 0  9995
2 52185  97.3389 328.6901 0007019 247.1214 112.9308 15.70645597 78995
SPACEBEE-137            
1 52186U 22033AF  23242.18335622  .00151934  00000+0  15566-2 0  9992
2 52186  97.3381 328.1415 0007185 237.6865 122.3699 15.64456772 78977
SPACEBEE-135            
1 52187U 22033AG  23241.75718684  .00211212  00000+0  17233-2 0  9997
2 52187  97.3401 328.6410 0007205 239.5322 120.5229 15.69932952 78965
PLANTSAT                
1 52188U 22033AH  23241.74406510  .00036487  00000+0  80620-3 0  9999
2 52188  97.3523 325.1706 0003472 259.4245 100.6612 15.43758286 78736
KSF2-C                  
1 52189U 22033AJ  23242.16693307  .00009948  00000+0  30660-3 0  9990
2 52189  97.3664 324.2307 0013432 287.8641  72.1137 15.33721219 78721
KSF2-D                  
1 52190U 22033AK  23242.21184004  .00070499  00000+0  10722-2 0  9992
2 52190  97.3420 327.0634 0005955 224.8928 135.1845 15.54287547 78930
